{
    "week": 291,
    "satellites": [
        {
            "Name": "BEIDOU-2 IGSO-1 (C06)",
            "Line1": "1 36828U 10036A   24309.51435433 -.00000051  00000+0  00000+0 0  9998",
            "Line2": "2 36828  54.2541 168.2939 0042599 206.0298 320.9318  1.00290344 52189",
            "SatelliteNumber": "36828",
            "Classification": "U",
            "LaunchYear": "10",
            "LaunchNumber": "036",
            "PieceOfLaunch": "A",
            "EpochYear": "24",
            "EpochDay": 309.51435433,
            "FirstDerivativeMeanMotion": -5.1e-07,
            "SecondDerivativeMeanMotion": "00000+0",
            "BSTAR": "00000+0",
            "SetNumber": "999",
            "Inclination": 54.2541,
            "RAAN": 168.2939,
            "Eccentricity": 0.0042599,
            "ArgumentOfPerigee": 206.0298,
            "MeanAnomaly": 320.9318,
            "MeanMotion": 1.00290344,
            "RevolutionNumber": "5218"
        },
        {
            "Name": "BEIDOU-2 G4 (C04)",
            "Line1": "1 37210U 10057A   24309.54781837 -.00000093  00000+0  00000+0 0  9998",
            "Line2": "2 37210   2.1832  69.9624 0008935 174.1965 157.3099  1.00270181 51375",
            "SatelliteNumber": "37210",
            "Classification": "U",
            "LaunchYear": "10",
            "LaunchNumber": "057",
            "PieceOfLaunch": "A",
            "EpochYear": "24",
            "EpochDay": 309.54781837,
            "FirstDerivativeMeanMotion": -9.3e-07,
            "SecondDerivativeMeanMotion": "00000+0",
            "BSTAR": "00000+0",
            "SetNumber": "999",
            "Inclination": 2.1832,
            "RAAN": 69.9624,
            "Eccentricity": 0.0008935,
            "ArgumentOfPerigee": 174.1965,
            "MeanAnomaly": 157.3099,
            "MeanMotion": 1.00270181,
            "RevolutionNumber": "5137"
        },
        {
            "Name": "BEIDOU-2 IGSO-2 (C07)",
            "Line1": "1 37256U 10068A   24309.49155611 -.00000193  00000+0  00000+0 0  9990",
            "Line2": "2 37256  48.6253 279.1071 0038897 218.9566 189.6708  1.00258014 50883",
            "SatelliteNumber": "37256",
            "Classification": "U",
            "LaunchYear": "10",
            "LaunchNumber": "068",
            "PieceOfLaunch": "A",
            "EpochYear": "24",
            "EpochDay": 309.49155611,
            "FirstDerivativeMeanMotion": -1.93e-06,
            "SecondDerivativeMeanMotion": "00000+0",
            "BSTAR": "00000+0",
            "SetNumber": "999",
            "Inclination": 48.6253,
            "RAAN": 279.1071,
            "Eccentricity": 0.0038897,
            "ArgumentOfPerigee": 218.9566,
            "MeanAnomaly": 189.6708,
            "MeanMotion": 1.00258014,
            "RevolutionNumber": "5088"
        },
        {
            "Name": "BEIDOU-2 IGSO-3 (C08)",
            "Line1": "1 37384U 11013A   24308.99569549 -.00000188  00000+0  00000+0 0  9990",
            "Line2": "2 37384  61.5607  45.7710 0032385 179.0760 285.2380  1.00273897 49746",
            "SatelliteNumber": "37384",
            "Classification": "U",
            "LaunchYear": "11",
            "LaunchNumber": "013",
            "PieceOfLaunch": "A",
            "EpochYear": "24",
            "EpochDay": 308.99569549,
            "FirstDerivativeMeanMotion": -1.88e-06,
            "SecondDerivativeMeanMotion": "00000+0",
            "BSTAR": "00000+0",
            "SetNumber": "999",
            "Inclination": 61.5607,
            "RAAN": 45.771,
            "Eccentricity": 0.0032385,
            "ArgumentOfPerigee": 179.076,
            "MeanAnomaly": 285.238,
            "MeanMotion": 1.00273897,
            "RevolutionNumber": "4974"
        },
        {
            "Name": "BEIDOU-2 IGSO-4 (C09)",
            "Line1": "1 37763U 11038A   24308.59665240  .00000027  00000+0  00000+0 0  9990",
            "Line2": "2 37763  54.5603 170.9480 0129231 228.6497 314.6941  1.00279052 48710",
            "SatelliteNumber": "37763",
            "Classification": "U",
            "LaunchYear": "11",
            "LaunchNumber": "038",
            "PieceOfLaunch": "A",
            "EpochYear": "24",
            "EpochDay": 308.5966524,
            "FirstDerivativeMeanMotion": 2.7e-07,
            "SecondDerivativeMeanMotion": "00000+0",
            "BSTAR": "00000+0",
            "SetNumber": "999",
            "Inclination": 54.5603,
            "RAAN": 170.948,
            "Eccentricity": 0.0129231,
            "ArgumentOfPerigee": 228.6497,
            "MeanAnomaly": 314.6941,
            "MeanMotion": 1.00279052,
            "RevolutionNumber": "4871"
        },
        {
            "Name": "BEIDOU-2 IGSO-5 (C10)",
            "Line1": "1 37948U 11073A   24309.58448311 -.00000153  00000+0  00000+0 0  9993",
            "Line2": "2 37948  48.7600 278.8013 0101812 222.3021 208.4882  1.00261032 47224",
            "SatelliteNumber": "37948",
            "Classification": "U",
            "LaunchYear": "11",
            "LaunchNumber": "073",
            "PieceOfLaunch": "A",
            "EpochYear": "24",
            "EpochDay": 309.58448311,
            "FirstDerivativeMeanMotion": -1.53e-06,
            "SecondDerivativeMeanMotion": "00000+0",
            "BSTAR": "00000+0",
            "SetNumber": "999",
            "Inclination": 48.76,
            "RAAN": 278.8013,
            "Eccentricity": 0.0101812,
            "ArgumentOfPerigee": 222.3021,
            "MeanAnomaly": 208.4882,
            "MeanMotion": 1.00261032,
            "RevolutionNumber": "4722"
        },
        {
            "Name": "BEIDOU-2 G5 (C05)",
            "Line1": "1 38091U 12008A   24309.43836138  .00000077  00000+0  00000+0 0  9998",
            "Line2": "2 38091   2.1030  70.7688 0009323 220.7023 329.2266  1.00273373 46453",
            "SatelliteNumber": "38091",
            "Classification": "U",
            "LaunchYear": "12",
            "LaunchNumber": "008",
            "PieceOfLaunch": "A",
            "EpochYear": "24",
            "EpochDay": 309.43836138,
            "FirstDerivativeMeanMotion": 7.7e-07,
            "SecondDerivativeMeanMotion": "00000+0",
            "BSTAR": "00000+0",
            "SetNumber": "999",
            "Inclination": 2.103,
            "RAAN": 70.7688,
            "Eccentricity": 0.0009323,
            "ArgumentOfPerigee": 220.7023,
            "MeanAnomaly": 329.2266,
            "MeanMotion": 1.00273373,
            "RevolutionNumber": "4645"
        },
        {
            "Name": "BEIDOU-2 M3 (C11)",
            "Line1": "1 38250U 12018A   24307.46659494 -.00000057  00000+0  00000+0 0  9994",
            "Line2": "2 38250  56.2411 324.7336 0025488 265.0106  94.7384  1.86233686 84925",
            "SatelliteNumber": "38250",
            "Classification": "U",
            "LaunchYear": "12",
            "LaunchNumber": "018",
            "PieceOfLaunch": "A",
            "EpochYear": "24",
            "EpochDay": 307.46659494,
            "FirstDerivativeMeanMotion": -5.7e-07,
            "SecondDerivativeMeanMotion": "00000+0",
            "BSTAR": "00000+0",
            "SetNumber": "999",
            "Inclination": 56.2411,
            "RAAN": 324.7336,
            "Eccentricity": 0.0025488,
            "ArgumentOfPerigee": 265.0106,
            "MeanAnomaly": 94.7384,
            "MeanMotion": 1.86233686,
            "RevolutionNumber": "8492"
        },
        {
            "Name": "BEIDOU-2 M4 (C12)",
            "Line1": "1 38251U 12018B   24308.47080005 -.00000052  00000+0  00000+0 0  9998",
            "Line2": "2 38251  56.1458 323.9610 0016358 266.4291  93.4203  1.86232092 84946",
            "SatelliteNumber": "38251",
            "Classification": "U",
            "LaunchYear": "12",
            "LaunchNumber": "018",
            "PieceOfLaunch": "B",
            "EpochYear": "24",
            "EpochDay": 308.47080005,
            "FirstDerivativeMeanMotion": -5.2e-07,
            "SecondDerivativeMeanMotion": "00000+0",
            "BSTAR": "00000+0",
            "SetNumber": "999",
            "Inclination": 56.1458,
            "RAAN": 323.961,
            "Eccentricity": 0.0016358,
            "ArgumentOfPerigee": 266.4291,
            "MeanAnomaly": 93.4203,
            "MeanMotion": 1.86232092,
            "RevolutionNumber": "8494"
        },
        {
            "Name": "BEIDOU-2 M6 (C14)",
            "Line1": "1 38775U 12050B   24308.71732422  .00000004  00000+0  00000+0 0  9995",
            "Line2": "2 38775  56.0298  82.5045 0010441 344.8067  15.1403  1.86231037 82317",
            "SatelliteNumber": "38775",
            "Classification": "U",
            "LaunchYear": "12",
            "LaunchNumber": "050",
            "PieceOfLaunch": "B",
            "EpochYear": "24",
            "EpochDay": 308.71732422,
            "FirstDerivativeMeanMotion": 4e-08,
            "SecondDerivativeMeanMotion": "00000+0",
            "BSTAR": "00000+0",
            "SetNumber": "999",
            "Inclination": 56.0298,
            "RAAN": 82.5045,
            "Eccentricity": 0.0010441,
            "ArgumentOfPerigee": 344.8067,
            "MeanAnomaly": 15.1403,
            "MeanMotion": 1.86231037,
            "RevolutionNumber": "8231"
        }
    ]
}